[{"OBJECT_NAME":"STARLINK-36221","OBJECT_ID":"2025-304Z","EPOCH":"2026-03-09T16:54:19.604448","MEAN_MOTION":14.98316025,"ECCENTRICITY":0.00041576,"INCLINATION":70.0026,"RA_OF_ASC_NODE":174.5449,"ARG_OF_PERICENTER":274.6212,"MEAN_ANOMALY":85.4472,"EPHEMERIS_TYPE":0,"CLASSIFICATION_TYPE":"U","NORAD_CAT_ID":67215,"ELEMENT_SET_NO":999,"REV_AT_EPOCH":1388,"BSTAR":-0.00041268394,"MEAN_MOTION_DOT":-5.012e-5,"MEAN_MOTION_DDOT":0},{"OBJECT_NAME":"DIAMANT R\/B","OBJECT_ID":"1967-011B","EPOCH":"2026-03-09T23:01:25.838112","MEAN_MOTION":14.34400418,"ECCENTRICITY":0.03301408,"INCLINATION":39.9445,"RA_OF_ASC_NODE":294.6723,"ARG_OF_PERICENTER":69.1567,"MEAN_ANOMALY":294.4228,"EPHEMERIS_TYPE":0,"CLASSIFICATION_TYPE":"U","NORAD_CAT_ID":2671,"ELEMENT_SET_NO":999,"REV_AT_EPOCH":4127,"BSTAR":0.00063874557,"MEAN_MOTION_DOT":3.249e-5,"MEAN_MOTION_DDOT":0}]
